satname,norad_id,inclination_deg,eccentricity,mean_motion_rev_per_day,perigee_km,apogee_km,l1,l2
STARLINK-1572,46060,53.1619,0.0001179,15.30164156,474.51407240425306,476.130118058908,1 46060U 20055AK  26170.68566505 -.00005599  00000+0 -17724-3 0  9998,2 46060  53.1619   0.3524 0001179  72.7374 287.3755 15.30164156324654
STARLINK-1573,46061,53.1614,9.25e-05,15.31695604,470.11957717003406,471.3866218384437,1 46061U 20055AL  26170.71741179 -.00000805  00000+0 -14178-4 0  9991,2 46061  53.1614 359.2323 0000925  71.1168 288.9933 15.31695604324704
STARLINK-1577,46063,53.1594,0.000132,15.31706228,469.81738063187913,471.62547925738545,1 46063U 20055AN  26170.68011775  .00000618  00000+0  31687-4 0  9995,2 46063  53.1594 359.4019 0001320  92.4532 267.6620 15.31706228324698
STARLINK-1583,46064,53.161,0.0001255,15.31702762,469.87222883013055,471.5912948893565,1 46064U 20055AP  26170.69417683  .00002018  00000+0  76770-4 0  9993,2 46064  53.1610 359.8404 0001255  93.6316 266.4829 15.31702762324686
STARLINK-1536,46070,53.1606,9.37e-05,15.31708501,470.0729169041979,471.35639170421564,1 46070U 20055AV  26170.69545957  .00001731  00000+0  67501-4 0  9999,2 46070  53.1606 347.2211 0000937  76.9550 283.1556 15.31708501324865
STARLINK-1542,46073,53.1611,0.0001406,15.31702592,469.76931760025127,471.6952196385864,1 46073U 20055AY  26170.71983212  .00001625  00000+0  64110-4 0  9990,2 46073  53.1611 350.0765 0001406 116.2932 243.8214 15.31702592324817
STARLINK-1549,46074,53.0534,0.0001715,15.31503593,470.1508540169161,472.5002196670521,1 46074U 20055AZ  26170.82394363  .00369626  00000+0  11413-1 0  9999,2 46074  53.0534 346.7630 0001715  58.9467 301.1701 15.31503593324855
STARLINK-1551,46075,53.1608,8.58e-05,15.31704949,470.13761017348315,471.312874934305,1 46075U 20055BA  26170.68646935 -.00001532  00000+0 -37611-4 0  9991,2 46075  53.1608 347.2013 0000858  82.9779 277.1320 15.31704949324857
STARLINK-1552,46076,53.1608,0.0001202,15.31701954,469.91093614482816,471.5574047742066,1 46076U 20055BB  26170.86818249  .00001142  00000+0  48544-4 0  9993,2 46076  53.1608 345.9344 0001202  81.4733 278.6404 15.31701954324872
STARLINK-1559,46077,53.0242,5.7e-05,15.39388423,447.5275635595326,448.3057336754746,1 46077U 20055BC  26169.70502769  .00037388  00000+0  94717-3 0  9995,2 46077  53.0242 320.1279 0000570 314.2054  45.8902 15.39388423325090
STARLINK-1566,46079,53.1626,0.0001195,15.3169809,469.9272473608589,471.56413032349246,1 46079U 20055BE  26170.87282705 -.00000474  00000+0 -35073-5 0  9992,2 46079  53.1626 345.7640 0001195 101.3178 258.7957 15.31698090324898
STARLINK-1568,46080,53.0558,0.0002977,15.55286582,399.3014545269243,403.3379430453815,1 46080U 20055BF  26170.57747112  .00038898  00000+0  56811-3 0  9999,2 46080  53.0558 263.5971 0002977  61.2849 298.8461 15.55286582326000
STARLINK-1578,46082,53.1611,0.0001009,15.31688285,470.0838620411778,471.4659724660796,1 46082U 20055BH  26170.68147205 -.00002970  00000+0 -84008-4 0  9994,2 46082  53.1611 347.1751 0001009  72.1289 287.9822 15.31688285324853
STARLINK-1579,46083,53.161,0.0001387,15.31706082,469.77192843552257,471.67180188471775,1 46083U 20055BJ  26170.86351016  .00002024  00000+0  76946-4 0  9992,2 46083  53.1610 345.8633 0001387  78.9796 281.1361 15.31706082324886
STARLINK-1622,46128,53.0128,0.0004663,15.89910138,299.41937926533774,305.6497735775092,1 46128U 20057M   26170.91668980  .00220140  28722-4  73129-3 0  9997,2 46128  53.0128  74.7274 0004663 139.6739 135.7502 15.89910138  5957
STARLINK-1623,46129,53.0386,0.0005013,15.77579747,333.9337684337888,340.666665787664,1 46129U 20057N   26170.09464194  .00123232  00000+0  71793-3 0  9991,2 46129  53.0386 118.0648 0005013  78.1717 281.9865 15.77579747322800
STARLINK-1596,46141,53.0334,0.000591,15.61768002,378.55439876791297,386.54553076026514,1 46141U 20057AA  26170.10255640  .00097208  00000+0  10952-2 0  9993,2 46141  53.0334 101.7914 0005910  77.5973 282.5701 15.61768002323034
STARLINK-1597,46142,53.0388,0.0005068,15.77184965,335.01683727755335,341.82474025224565,1 46142U 20057AB  26170.39058355  .00127461  00000+0  75519-3 0  9995,2 46142  53.0388 156.3591 0005068  61.8854 298.2677 15.77184965322288
STARLINK-1606,46144,53.0289,0.0001771,16.07405141,252.7967003003332,255.14579304130348,1 46144U 20057AD  26170.82147169  .00923810  47526-3  11365-2 0  9995,2 46144  53.0289 105.0099 0001771 188.0197 172.0807 16.07405141311292
STARLINK-1608,46146,53.1552,0.0005851,15.37058583,450.8148041415179,458.8107219542362,1 46146U 20057AF  26170.36491917  .00058621  00000+0  15908-2 0  9997,2 46146  53.1552 195.1871 0005851  10.6020 349.5106 15.37058583321777
STARLINK-1667,46155,53.0078,0.0004479,15.99399304,273.10386488924996,279.06471632137436,1 46155U 20057AQ  26170.91668980  .00408805  81867-4  81063-3 0  9998,2 46155  53.0078  73.2365 0004479 179.7968  81.7024 15.99399304  5967
STARLINK-1545,46156,53.0347,0.0003261,15.92108201,294.2077136146172,298.5608363901738,1 46156U 20057AR  26170.91668980  .00202759  26479-4  60273-3 0  9997,2 46156  53.0347 110.1109 0003261 199.6586 141.3962 15.92108201  6062
STARLINK-1595,46159,53.0399,0.0005835,15.74851646,341.13039150649,348.97635467188593,1 46159U 20057AU  26170.24828682  .00111149  00000+0  73128-3 0  9995,2 46159  53.0399 160.0130 0005835  59.1462 301.0130 15.74851646323480
STARLINK-1598,46160,53.0426,0.0001082,15.74274026,345.9701914722382,347.4254457269817,1 46160U 20057AV  26170.22545510  .00098105  00000+0  66385-3 0  9994,2 46160  53.0426 146.3197 0001082  12.8863 347.2183 15.74274026323665
STARLINK-1626,46167,53.0392,0.0001621,15.77942138,335.18359155118924,337.36040294809754,1 46167U 20057BC  26170.38002748  .00119741  00000+0  68719-3 0  9992,2 46167  53.0392 154.7101 0001621  96.4453 263.6752 15.77942138322317
STARLINK-1633,46171,53.0317,0.0002826,15.87512108,307.37072231788443,311.1504394305957,1 46171U 20057BG  26170.91668980  .00217022  00000+0  78410-3 0  9992,2 46171  53.0317 112.3139 0002826 181.4765 311.7624 15.87512108  5995
STARLINK-1635,46172,53.031,0.0004098,15.96439634,281.5757411929526,287.0362794842258,1 46172U 20057BH  26170.91668980  .00343299  58488-4  80425-3 0  9996,2 46172  53.0310 109.5458 0004098 196.8442 161.5326 15.96439634  5998
STARLINK-1640,46173,53.0392,0.0005698,15.74991947,340.82345088678267,348.48474362121397,1 46173U 20057BJ  26170.85538812  .00110801  00000+0  72464-3 0  9997,2 46173  53.0392 158.0164 0005698  56.1118 304.0442 15.74991947322303
